Nombre;Direccion;Ciudad;Provincia;Telefono;Tipo;Latitud;Longitud
CENTRO DE SALUD ALAMEDILLA;AV. COMUNEROS 27-31  ;SALAMANCA;SALAMANCA;923126591;CENTROS DE ATENCIÓN PRIMARIA: CENTROS DE SALUD;40.96875199999999;-5.655187799999999
CENTRO DE SALUD ALFONSO SÁNCHEZ MONTERO;CL. ALFAREROS 0  ;SALAMANCA;SALAMANCA;923232630;CENTROS DE ATENCIÓN PRIMARIA: CENTROS DE SALUD;40.9757297;-5.6743577
CENTRO DE SALUD ARTURO EYRIES;CL. PUERTO RICO 1  ;VALLADOLID;VALLADOLID;983471508;CENTROS DE ATENCIÓN PRIMARIA: CENTROS DE SALUD;41.6344462;-4.7478554
CENTRO DE SALUD ASTORGA I;CL. GASPAR BECERRA 0  ;ASTORGA;LEON;987618552;CENTROS DE ATENCIÓN PRIMARIA: CENTROS DE SALUD;42.4626061;-6.063865400000001
CENTRO DE SALUD ASTORGA II;CL. GASPAR BECERRA 0  ;ASTORGA;LEON;987618552;CENTROS DE ATENCIÓN PRIMARIA: CENTROS DE SALUD;42.4626061;-6.063865400000001
CENTRO DE SALUD ÁVILA NORTE;CL.  ARTURO DUPERIER 4  ;AVILA;AVILA;920212843;CENTROS DE ATENCIÓN PRIMARIA: CENTROS DE SALUD;40.657348;-4.6954508
CENTRO DE SALUD ÁVILA SUR-ESTE;CL. JESÚS JIMÉNEZ 6  ;AVILA;AVILA;920353574;CENTROS DE ATENCIÓN PRIMARIA: CENTROS DE SALUD;40.1708941;-5.3400892
CENTRO DE SALUD ÁVILA-ESTACIÓN;PS. DE LA ESTACIÓN 28  ;AVILA;AVILA;920353680;CENTROS DE ATENCIÓN PRIMARIA: CENTROS DE SALUD;40.6570211;-4.6851635
CENTRO DE SALUD BENAVENTE NORTE;CL. RÍO CEA 0  ;BENAVENTE;ZAMORA;980636793;CENTROS DE ATENCIÓN PRIMARIA: CENTROS DE SALUD;42.0057823;-5.6814958
CENTRO DE SALUD BENAVENTE SUR;CL. FRAY TORIBIO 2  ;BENAVENTE;ZAMORA;980634512;CENTROS DE ATENCIÓN PRIMARIA: CENTROS DE SALUD;42.0025768;-5.6752419
CENTRO DE SALUD CAMPOS-LAMPREANA;CL. SANTA TERESA  0  ;VILLARRIN DE CAMPOS;ZAMORA;980580037;CENTROS DE ATENCIÓN PRIMARIA: CENTROS DE SALUD;41.7951393;-5.639222999999999
CENTRO DE SALUD CAPUCHINOS;CL. VALLES MINEROS 36  ;SALAMANCA;SALAMANCA;923205100;CENTROS DE ATENCIÓN PRIMARIA: CENTROS DE SALUD;40.983845;-5.6672894
CENTRO DE SALUD CASA DEL BARCO;PS. DE FILIPINOS  15  ;VALLADOLID;VALLADOLID;983362070;CENTROS DE ATENCIÓN PRIMARIA: CENTROS DE SALUD;41.644327;-4.7311999
CENTRO DE SALUD CASTO PRIETO;CL. MAESTRO TÁRREGA 2-4  ;SALAMANCA;SALAMANCA;923260930;CENTROS DE ATENCIÓN PRIMARIA: CENTROS DE SALUD;40.9511678;-5.6636657
CENTRO DE SALUD CRISTOBAL ACOSTA;CL. JOSÉ Mª DE LA PUENTE 1  ;BURGOS;BURGOS;947280520;CENTROS DE ATENCIÓN PRIMARIA: CENTROS DE SALUD;42.3523771;-3.6924208
CENTRO DE SALUD DE ÁGREDA;CL. VENERABLE 68  ;AGREDA;SORIA;976647218;CENTROS DE ATENCIÓN PRIMARIA: CENTROS DE SALUD;41.8537639;-1.9248478
CENTRO DE SALUD DE AGUILAR DE CAMPOO;AV. DE LA CIUDAD DEPORTIVA 3  ;AGUILAR DE CAMPOO;PALENCIA;979122088;CENTROS DE ATENCIÓN PRIMARIA: CENTROS DE SALUD;42.791254;-4.2574223
CENTRO DE SALUD DE ALAEJOS;PZ. SANTA MARÍA   ;ALAEJOS;VALLADOLID;983817430;CENTROS DE ATENCIÓN PRIMARIA: CENTROS DE SALUD;41.3094355;-5.2139369
CENTRO DE SALUD DE ALBA DE TORMES;CL. CORRALES DE LA DEHESA 0  ;ALBA DE TORMES;SALAMANCA;923300642;CENTROS DE ATENCIÓN PRIMARIA: CENTROS DE SALUD;40.8215639;-5.513412799999999
CENTRO DE SALUD DE ALDEADÁVILA DE LA RIBERA;CL. LAS ERAS 0  ;ALDEADAVILA DE LA RIBERA;SALAMANCA;923505161;CENTROS DE ATENCIÓN PRIMARIA: CENTROS DE SALUD;41.2152183;-6.6071298
CENTRO DE SALUD DE ALMAZÁN;CL. FERIAL   ;ALMAZAN;SORIA;975300961;CENTROS DE ATENCIÓN PRIMARIA: CENTROS DE SALUD;41.49137;-2.5274397
CENTRO DE SALUD DE ARANDA NORTE;CL. SANTIAGO 7  ;ARANDA DE DUERO;BURGOS;947509494;CENTROS DE ATENCIÓN PRIMARIA: CENTROS DE SALUD;41.6724217;-3.6799237
CENTRO DE SALUD DE ARANDA RURAL;CL. BURGO DE OSMA 53  ;ARANDA DE DUERO;BURGOS;947511452;CENTROS DE ATENCIÓN PRIMARIA: CENTROS DE SALUD;41.6661166;-3.687929
CENTRO DE SALUD DE ARANDA SUR;CL. BURGO DE OSMA 53  ;ARANDA DE DUERO;BURGOS;947511551;CENTROS DE ATENCIÓN PRIMARIA: CENTROS DE SALUD;41.6661166;-3.687929
CENTRO DE SALUD DE ARCOS DE JALÓN;CR. DE MARANCHÓN 0  ;ARCOS DE JALON;SORIA;975320311;CENTROS DE ATENCIÓN PRIMARIA: CENTROS DE SALUD;41.0990836;-2.3021691
CENTRO DE SALUD DE ARENAS DE SAN PEDRO;PS. PINTOR MARTÍNEZ VÁZQUEZ 21  ;ARENAS DE SAN PEDRO;AVILA;920371509;CENTROS DE ATENCIÓN PRIMARIA: CENTROS DE SALUD;40.21230080000001;-5.084791399999999
CENTRO DE SALUD DE ARÉVALO;AV. DE EMILIO ROMERO  0  ;AREVALO;AVILA;920300118;CENTROS DE ATENCIÓN PRIMARIA: CENTROS DE SALUD;41.0560807;-4.714125
CENTRO DE SALUD DE ARMUNIA;CL. SAN JUAN BOSCO 0  ;LEON;LEON;987256200;CENTROS DE ATENCIÓN PRIMARIA: CENTROS DE SALUD;42.5790613;-5.587925299999999
CENTRO DE SALUD DE ÁVILA RURAL;CL. SANTA FÉ, ESQUINA MADRIGAL   ;AVILA;AVILA;920253436;CENTROS DE ATENCIÓN PRIMARIA: CENTROS DE SALUD;40.656685;-4.6812086
CENTRO DE SALUD DE ÁVILA SUR OESTE;CL. FRAY GIL 6  ;AVILA;AVILA;920213163;CENTROS DE ATENCIÓN PRIMARIA: CENTROS DE SALUD;40.6501056;-4.695640399999999
CENTRO DE SALUD DE BARRIO ESPAÑA;CL. COSTA BRAVA 0  ;VALLADOLID;VALLADOLID;983310162;CENTROS DE ATENCIÓN PRIMARIA: CENTROS DE SALUD;41.6679026;-4.7093044
CENTRO DE SALUD DE BELORADO;CL. LAS CERCAS 2  ;BELORADO;BURGOS;947580600;CENTROS DE ATENCIÓN PRIMARIA: CENTROS DE SALUD;42.4199531;-3.190815
CENTRO DE SALUD DE BENAVIDES DE ÓRBIGO;CL. MAGISTERIO NACIONAL 0  ;BENAVIDES DE ORBIGO;LEON;987370153;CENTROS DE ATENCIÓN PRIMARIA: CENTROS DE SALUD;42.5030897;-5.8934928
CENTRO DE SALUD DE BERLANGA DE DUERO;CL. MANUEL VÁZQUEZ 0  ;BERLANGA DE DUERO;SORIA;975343019;CENTROS DE ATENCIÓN PRIMARIA: CENTROS DE SALUD;41.4641739;-2.8623338
CENTRO DE SALUD DE BOÑAR;CL. LAS ESCUELAS 0  ;BOÑAR;LEON;987735313;CENTROS DE ATENCIÓN PRIMARIA: CENTROS DE SALUD;42.8668756;-5.3236694
CENTRO DE SALUD DE BRIVIESCA;CL. SANTA ANA AL RÍO 36  ;BRIVIESCA;BURGOS;947592244;CENTROS DE ATENCIÓN PRIMARIA: CENTROS DE SALUD;42.5514699;-3.3219113
CENTRO DE SALUD DE BURGOHONDO;PZ. MAYOR 12  ;BURGOHONDO;AVILA;920283240;CENTROS DE ATENCIÓN PRIMARIA: CENTROS DE SALUD;40.4126337;-4.7859886
CENTRO DE SALUD DE BURGOS RURAL NORTE;CL. LUIS CERNUDA 11  ;BURGOS;BURGOS;947222605;CENTROS DE ATENCIÓN PRIMARIA: CENTROS DE SALUD;42.35313;-3.68094
CENTRO DE SALUD DE BURGOS RURAL SUR;CL. LUIS CERNUDA 11  ;BURGOS;BURGOS;947222605;CENTROS DE ATENCIÓN PRIMARIA: CENTROS DE SALUD;42.35313;-3.68094
CENTRO DE SALUD DE CACABELOS;CL. ANGEL GONZALEZ 5  ;CACABELOS;LEON;987549262;CENTROS DE ATENCIÓN PRIMARIA: CENTROS DE SALUD;42.5987601;-6.724728000000001
CENTRO DE SALUD DE CALZADA DE VALDUNCIEL;CL. LA LAGUNA 0  ;CALZADA DE VALDUNCIEL;SALAMANCA;923310278;CENTROS DE ATENCIÓN PRIMARIA: CENTROS DE SALUD;41.0867472;-5.701678299999999
CENTRO DE SALUD DE CANDELEDA;CL. CHILLA, S/N   ;CANDELEDA;AVILA;920380197;CENTROS DE ATENCIÓN PRIMARIA: CENTROS DE SALUD;40.1556095;-5.243280899999999
CENTRO DE SALUD DE CANTALEJO;CR. SEPÚLVEDA 54  ;CANTALEJO;SEGOVIA;921520326;CENTROS DE ATENCIÓN PRIMARIA: CENTROS DE SALUD;41.2583795;-3.9197266
CENTRO DE SALUD DE CANTERAC;CL. SEGOVIA 23  ;VALLADOLID;VALLADOLID;983396611;CENTROS DE ATENCIÓN PRIMARIA: CENTROS DE SALUD;41.6426874;-4.7213701
CENTRO DE SALUD DE CARBAJALES;CR. DE ZAMORA 0  ;CARBAJALES DE ALBA;ZAMORA;980585111;CENTROS DE ATENCIÓN PRIMARIA: CENTROS DE SALUD;41.65291269999999;-5.997800499999999
CENTRO DE SALUD DE CARBONERO EL MAYOR;CR. DE BERNARDOS 8  ;CARBONERO EL MAYOR;SEGOVIA;921560995;CENTROS DE ATENCIÓN PRIMARIA: CENTROS DE SALUD;41.1238889;-4.2693011
CENTRO DE SALUD DE CARRIÓN DE LOS CONDES;PZ. CONDE DE GARAY 0  ;CARRION DE LOS CONDES;PALENCIA;979880245;CENTROS DE ATENCIÓN PRIMARIA: CENTROS DE SALUD;42.33604649999999;-4.601401699999999
CENTRO DE SALUD DE CEBREROS;AV. DE LA CONSTITUCIÓN    ;CEBREROS;AVILA;918630365;CENTROS DE ATENCIÓN PRIMARIA: CENTROS DE SALUD;40.4998663;-4.4253198
CENTRO DE SALUD DE CERVERA DE PISUERGA;CL. FELIPE CALVO 5  ;CERVERA DE PISUERGA;PALENCIA;979870291;CENTROS DE ATENCIÓN PRIMARIA: CENTROS DE SALUD;42.8632867;-4.4952286
CENTRO DE SALUD DE CIGALES;CR. DEL RÍO 7  ;CIGALES;VALLADOLID;983580090;CENTROS DE ATENCIÓN PRIMARIA: CENTROS DE SALUD;41.7554065;-4.6955612
CENTRO DE SALUD DE CIRCUNVALACIÓN;PZ. DEL BIÓLOGO JOSÉ ANTONIO VALVERDE 5  ;VALLADOLID;VALLADOLID;983299551;CENTROS DE ATENCIÓN PRIMARIA: CENTROS DE SALUD;41.652251;-4.724532099999999
CENTRO DE SALUD DE CISTIERNA;CL. BATALLA DE LEPANTO 0  ;CISTIERNA;LEON;987700990;CENTROS DE ATENCIÓN PRIMARIA: CENTROS DE SALUD;42.8043407;-5.129856699999999
CENTRO DE SALUD DE CIUDAD RODRIGO;AV. SALAMANCA 147-151  ;CIUDAD RODRIGO;SALAMANCA;923481414;CENTROS DE ATENCIÓN PRIMARIA: CENTROS DE SALUD;40.6085689;-6.5233849
CENTRO DE SALUD DE CONDADO DE TREVIÑO;CR. MIRANDA 34  ;TREVIÑO;BURGOS;945360140;CENTROS DE ATENCIÓN PRIMARIA: CENTROS DE SALUD;42.7330636;-2.7514823
CENTRO DE SALUD DE CORRALES DEL VINO;CR. DE AVEDILLO 0  ;CORRALES;ZAMORA;980560117;CENTROS DE ATENCIÓN PRIMARIA: CENTROS DE SALUD;41.3907887;-5.6643507
CENTRO DE SALUD DE CUÉLLAR;CL. SOLANA ALTA 0  ;CUELLAR;SEGOVIA;921142244;CENTROS DE ATENCIÓN PRIMARIA: CENTROS DE SALUD;41.4014741;-4.314157
CENTRO DE SALUD DE EL BARCO DE ÁVILA;CL. DE LAS ERAS  0  ;BARCO DE AVILA (EL);AVILA;920340027;CENTROS DE ATENCIÓN PRIMARIA: CENTROS DE SALUD;40.3575592;-5.520090199999999
CENTRO DE SALUD DE EL ESPINAR;CL. MARI GARCÍA 0  ;ESPINAR (EL);SEGOVIA;921181602;CENTROS DE ATENCIÓN PRIMARIA: CENTROS DE SALUD;40.7197032;-4.2293743
CENTRO DE SALUD DE ESGUEVILLAS DE ESGUEVA;CL. DEMOCRACIA 2  ;ESGUEVILLAS DE ESGUEVA;VALLADOLID;983686781;CENTROS DE ATENCIÓN PRIMARIA: CENTROS DE SALUD;41.74637;-4.38099
CENTRO DE SALUD DE ESPINOSA DE LOS MONTEROS;CL. PROGRESO  0  ;ESPINOSA DE LOS MONTEROS;BURGOS;947120588;CENTROS DE ATENCIÓN PRIMARIA: CENTROS DE SALUD;43.07622509999999;-3.5516151
CENTRO DE SALUD DE FABERO;PZ. DE LA CORTINA 0  ;FABERO;LEON;987551611;CENTROS DE ATENCIÓN PRIMARIA: CENTROS DE SALUD;42.7682169;-6.6277235
CENTRO DE SALUD DE FONTIVEROS;CL. CAMINO VIEJO 0  ;FONTIVEROS;AVILA;920245006;CENTROS DE ATENCIÓN PRIMARIA: CENTROS DE SALUD;40.9275697;-4.9629499
CENTRO DE SALUD DE FRÓMISTA;AV. EJÉRCITO ESPAÑOL 28  ;FROMISTA;PALENCIA;979810065;CENTROS DE ATENCIÓN PRIMARIA: CENTROS DE SALUD;42.2696338;-4.4040871
CENTRO DE SALUD DE FUENTESAÚCO;CL. LA FUENTE 10  ;FUENTESAUCO DE FUENTIDUEÑA;SEGOVIA;921169564;CENTROS DE ATENCIÓN PRIMARIA: CENTROS DE SALUD;41.42532;-4.06175
CENTRO DE SALUD DE GREDOS;CL. LAS MOZAS  0  ;NAVARREDONDA DE GREDOS;AVILA;920348366;CENTROS DE ATENCIÓN PRIMARIA: CENTROS DE SALUD;40.36163;-5.1308286
CENTRO DE SALUD DE GUARDO;CL. SANTA BÁRBARA 0  ;GUARDO;PALENCIA;979850580;CENTROS DE ATENCIÓN PRIMARIA: CENTROS DE SALUD;42.78913439999999;-4.845020000000001
CENTRO DE SALUD DE GUIJUELO;CL. TESO DE LA FERIA 0  ;GUIJUELO;SALAMANCA;923581082;CENTROS DE ATENCIÓN PRIMARIA: CENTROS DE SALUD;40.5600001;-5.6721716
CENTRO DE SALUD DE HERRERA DE PISUERGA;AV. MARÍA AUXILIADORA 0  ;HERRERA DE PISUERGA;PALENCIA;979140047;CENTROS DE ATENCIÓN PRIMARIA: CENTROS DE SALUD;42.5958333;-4.333419699999999
CENTRO DE SALUD DE HUERTA DE REY;CL. CARIDAD 33  ;HUERTA DEL REY;BURGOS;947388341;CENTROS DE ATENCIÓN PRIMARIA: CENTROS DE SALUD;41.8399591;-3.349426
CENTRO DE SALUD DE ISCAR;CL. RONDA    ;ISCAR;VALLADOLID;983620454;CENTROS DE ATENCIÓN PRIMARIA: CENTROS DE SALUD;41.3615299;-4.5319617
CENTRO DE SALUD DE LA ALBERCA;AV. LAS BATUECAS 0  ;ALBERCA (LA);SALAMANCA;923415136;CENTROS DE ATENCIÓN PRIMARIA: CENTROS DE SALUD;40.4937353;-6.1111673
CENTRO DE SALUD DE LA FUENTE DE SAN ESTEBAN;PZ. ESPAÑA 0  ;FUENTE DE SAN ESTEBAN (LA);SALAMANCA;923441001;CENTROS DE ATENCIÓN PRIMARIA: CENTROS DE SALUD;40.8015669;-6.258829
CENTRO DE SALUD DE LA MAGDALENA;CL. NUESTRA SEÑORA  2  ;VALLADOLID;VALLADOLID;983310475;CENTROS DE ATENCIÓN PRIMARIA: CENTROS DE SALUD;41.6600006;-4.7150333
CENTRO DE SALUD DE LA PUEBLA Y SERVICIO DE URGENCIAS DE ATENCIÓN PRIMARIA;AV. MODESTO LAFUENTE 2  ;PALENCIA;PALENCIA;979760185;CENTROS DE ATENCIÓN PRIMARIA: CENTROS DE SALUD;42.0068877;-4.5261505
CENTRO DE SALUD DE LA SIERRA (NAVAFRÍA);CL. POBO 2-8  ;NAVAFRIA;SEGOVIA;921506262;CENTROS DE ATENCIÓN PRIMARIA: CENTROS DE SALUD;41.0555386;-3.824241
CENTRO DE SALUD DE LAGUNA DE DUERO;AV. LA LAGUNA   ;LAGUNA DE DUERO;VALLADOLID;983543193;CENTROS DE ATENCIÓN PRIMARIA: CENTROS DE SALUD;41.5839689;-4.7252585
CENTRO DE SALUD DE LANZAHITA;CL. FELIPE VELASCO 0  ;LANZAHITA;AVILA;920378004;CENTROS DE ATENCIÓN PRIMARIA: CENTROS DE SALUD;40.2048622;-4.9363245
CENTRO DE SALUD DE LAS NAVAS DEL MARQUÉS;TR. GRUPO ESCOLAR 10  ;NAVAS DEL MARQUES (LAS);AVILA;918971027;CENTROS DE ATENCIÓN PRIMARIA: CENTROS DE SALUD;40.6037138;-4.3321151
CENTRO DE SALUD DE LERMA;CL. SUBIDA SAN MIGUEL  0  ;LERMA;BURGOS;947171204;CENTROS DE ATENCIÓN PRIMARIA: CENTROS DE SALUD;42.0235175;-3.7488062
CENTRO DE SALUD DE LINARES DE RIOFRIO;CR. DE GUIJUELO 0  ;LINARES DE RIOFRIO;SALAMANCA;923416287;CENTROS DE ATENCIÓN PRIMARIA: CENTROS DE SALUD;40.5784407;-5.918518199999999
CENTRO DE SALUD DE LUMBRALES;CL. IMPERIAL   ;LUMBRALES;SALAMANCA;923512599;CENTROS DE ATENCIÓN PRIMARIA: CENTROS DE SALUD;40.935058;-6.7179351
CENTRO DE SALUD DE MADRIGAL DE LAS ALTAS TORRES;CL. ISABEL LA CATÓLICA   ;MADRIGAL DE LAS ALTAS TORRES;AVILA;920320115;CENTROS DE ATENCIÓN PRIMARIA: CENTROS DE SALUD;41.0891989;-4.9972637
CENTRO DE SALUD DE MANSILLA DE LAS MULAS;AV. VILLA DE LIL 0  ;MANSILLA DE LAS MULAS;LEON;987311175;CENTROS DE ATENCIÓN PRIMARIA: CENTROS DE SALUD;42.4975535;-5.415587299999999
CENTRO DE SALUD DE MATALLANA DE TORÍO;CL. LA ESTACIÓN 0  ;MATALLANA DE TORIO;LEON;987578275;CENTROS DE ATENCIÓN PRIMARIA: CENTROS DE SALUD;42.8412391;-5.522415
CENTRO DE SALUD DE MATILLA DE LOS CAÑOS;CL. CUARTEL 0  ;MATILLA DE LOS CAÑOS DEL RIO;SALAMANCA;923382380;CENTROS DE ATENCIÓN PRIMARIA: CENTROS DE SALUD;40.8250749;-5.9434118
CENTRO DE SALUD DE MAYORGA DE CAMPOS;CL. SAN JUAN 21  ;MAYORGA;VALLADOLID;983751258;CENTROS DE ATENCIÓN PRIMARIA: CENTROS DE SALUD;42.1682932;-5.2635432
CENTRO DE SALUD DE MEDINA DE POMAR;CL. ORTIZ DE NAVACERRA 2  ;MEDINA DE POMAR;BURGOS;947191621;CENTROS DE ATENCIÓN PRIMARIA: CENTROS DE SALUD;42.9319857;-3.4878854
CENTRO DE SALUD DE MEDINA DE RIOSECO;PZ. DE LA CONSTITUCIÓN   ;MEDINA DE RIOSECO;VALLADOLID;983700511;CENTROS DE ATENCIÓN PRIMARIA: CENTROS DE SALUD;41.8806167;-5.0406124
CENTRO DE SALUD DE MEDINA DEL CAMPO RURAL;CL. REY    ;MEDINA DEL CAMPO;VALLADOLID;983812761;CENTROS DE ATENCIÓN PRIMARIA: CENTROS DE SALUD;41.308307;-4.9176434
CENTRO DE SALUD DE MEDINA DEL CAMPO URBANO;CL. ALMIRANTE    ;MEDINA DEL CAMPO;VALLADOLID;983812752;CENTROS DE ATENCIÓN PRIMARIA: CENTROS DE SALUD;41.3089458;-4.9168921
CENTRO DE SALUD DE MELGAR DE FERNAMENTAL;CL. CRUZ DE LA RIBERA, S/N   ;MELGAR DE FERNAMENTAL;BURGOS;947373767;CENTROS DE ATENCIÓN PRIMARIA: CENTROS DE SALUD;42.4034207;-4.2495112
CENTRO DE SALUD DE MIRANDA DEL CASTAÑAR;AV. DE LA CONSTITUCIÓN 17  ;MIRANDA DEL CASTAÑAR;SALAMANCA;923432100;CENTROS DE ATENCIÓN PRIMARIA: CENTROS DE SALUD;40.4842611;-5.9967132
CENTRO DE SALUD DE MOMBELTRÁN;CL. JOSÉ MANUEL FERNÁNDEZ DE SANTIAGO 0  ;MOMBELTRAN;AVILA;920386058;CENTROS DE ATENCIÓN PRIMARIA: CENTROS DE SALUD;40.2586845;-5.0156546
CENTRO DE SALUD DE MOTA DEL MARQUÉS;CL. SAN SEBASTIÁN   ;MOTA DEL MARQUES;VALLADOLID;983780154;CENTROS DE ATENCIÓN PRIMARIA: CENTROS DE SALUD;41.6330648;-5.1784019
CENTRO DE SALUD DE NAVA DE LA ASUNCIÓN;PZ. DEL CAÑO 1  ;NAVA DE LA ASUNCION;SEGOVIA;921580774;CENTROS DE ATENCIÓN PRIMARIA: CENTROS DE SALUD;41.1544;-4.489059999999999
CENTRO DE SALUD DE OLMEDO;CL. CALABAZAS 2  ;OLMEDO;VALLADOLID;983601939;CENTROS DE ATENCIÓN PRIMARIA: CENTROS DE SALUD;41.2844779;-4.6819142
CENTRO DE SALUD DE ÓLVEGA;PZ. DE LA CONSTITUCIÓN 1  ;OLVEGA;SORIA;976645589;CENTROS DE ATENCIÓN PRIMARIA: CENTROS DE SALUD;41.7795296;-1.9854576
CENTRO DE SALUD DE OSORNO;AV. CONCENTRACIÓN PARCELARIA 0  ;OSORNO;PALENCIA;979817086;CENTROS DE ATENCIÓN PRIMARIA: CENTROS DE SALUD;42.4072949;-4.360328099999999
CENTRO DE SALUD DE PAMPLIEGA;CL. LAS ERAS 0  ;PAMPLIEGA;BURGOS;947161250;CENTROS DE ATENCIÓN PRIMARIA: CENTROS DE SALUD;42.2045232;-3.9863089
CENTRO DE SALUD DE PAREDES DE NAVA;CL. EXTRAMUROS 0  ;PAREDES DE NAVA;PALENCIA;979830446;CENTROS DE ATENCIÓN PRIMARIA: CENTROS DE SALUD;42.151599;-4.692841
CENTRO DE SALUD DE PEDROSILLO EL RALO;CL. SANTA MARÍA 0  ;PEDROSILLO EL RALO;SALAMANCA;923354038;CENTROS DE ATENCIÓN PRIMARIA: CENTROS DE SALUD;41.0613923;-5.5489686
CENTRO DE SALUD DE PEÑAFIEL;CL. CRUZ ROJA   ;PEÑAFIEL;VALLADOLID;983873091;CENTROS DE ATENCIÓN PRIMARIA: CENTROS DE SALUD;41.5976608;-4.127224
CENTRO DE SALUD DE PEÑARANDA DE BRACAMONTE;AV. LOS JARDINES 0  ;PEÑARANDA DE BRACAMONTE;SALAMANCA;923541600;CENTROS DE ATENCIÓN PRIMARIA: CENTROS DE SALUD;40.8984798;-5.2031187
CENTRO DE SALUD DE PIEDRAHÍTA;PZ. NUEVA DE LA VILLA 0  ;PIEDRAHITA;AVILA;920360500;CENTROS DE ATENCIÓN PRIMARIA: CENTROS DE SALUD;40.4626621;-5.3262433
CENTRO DE SALUD DE POLA DE GORDÓN;CL. CARDENAL AGUIRRE 0  ;POLA DE GORDON (LA);LEON;987588433;CENTROS DE ATENCIÓN PRIMARIA: CENTROS DE SALUD;42.8544632;-5.671641699999999
CENTRO DE SALUD DE PONFERRADA I;PS. SAN ANTONIO 7  ;PONFERRADA;LEON;987400611;CENTROS DE ATENCIÓN PRIMARIA: CENTROS DE SALUD;42.5475097;-6.588137199999999
CENTRO DE SALUD DE PONFERRADA II;CL. PICO TUERTO 0  ;PONFERRADA;LEON;987410250;CENTROS DE ATENCIÓN PRIMARIA: CENTROS DE SALUD;42.5527958;-6.5994166
CENTRO DE SALUD DE PONFERRADA IV;CL. RUBÉN DARÍO 53  ;PONFERRADA;LEON;987447201;CENTROS DE ATENCIÓN PRIMARIA: CENTROS DE SALUD;42.5577489;-6.6207794
CENTRO DE SALUD DE PUENTE DE DOMINGO FLÓREZ;PZ. RODOLFO MARTÍN VILLA 0  ;PUENTE DE DOMINGO FLOREZ;LEON;987460426;CENTROS DE ATENCIÓN PRIMARIA: CENTROS DE SALUD;42.4117797;-6.8199321
CENTRO DE SALUD DE QUINTANAR DE LA SIERRA;CL. DE LA IGLESIA 25-27  ;QUINTANAR DE LA SIERRA;BURGOS;947395500;CENTROS DE ATENCIÓN PRIMARIA: CENTROS DE SALUD;41.9800686;-3.041719
CENTRO DE SALUD DE RIAÑO;CL. SOLASIERRA 0  ;RIAÑO;LEON;987740703;CENTROS DE ATENCIÓN PRIMARIA: CENTROS DE SALUD;42.9762705;-5.0067369
CENTRO DE SALUD DE RIAZA;PZ. MARÍA HERNADO 1  ;RIAZA;SEGOVIA;921550238;CENTROS DE ATENCIÓN PRIMARIA: CENTROS DE SALUD;41.2769722;-3.479405
CENTRO DE SALUD DE RIBERA DEL ESLA;CL. EL SEXTIL 0  ;GRADEFES;LEON;987334051;CENTROS DE ATENCIÓN PRIMARIA: CENTROS DE SALUD;42.6246435;-5.2273201
CENTRO DE SALUD DE ROA DE DUERO;CR. MAMBRILLA  0  ;ROA;BURGOS;947541122;CENTROS DE ATENCIÓN PRIMARIA: CENTROS DE SALUD;37.32476279999999;-79.97704139999999
CENTRO DE SALUD DE ROBLEDA;CL. CALZADA 0  ;ROBLEDA;SALAMANCA;923486251;CENTROS DE ATENCIÓN PRIMARIA: CENTROS DE SALUD;40.3848495;-6.6074171
CENTRO DE SALUD DE SACRAMENIA;CL. SEPÚLVEDA 14  ;SACRAMENIA;SEGOVIA;921527319;CENTROS DE ATENCIÓN PRIMARIA: CENTROS DE SALUD;41.4935456;-3.9610356
CENTRO DE SALUD DE SAHAGÚN;CL. CONSTITUCIÓN 0  ;SAHAGUN;LEON;987781291;CENTROS DE ATENCIÓN PRIMARIA: CENTROS DE SALUD;42.3717778;-5.0322976
CENTRO DE SALUD DE SALAS DE LOS INFANTES;CL. PARQUE LARA  0  ;SALAS DE LOS INFANTES;BURGOS;947380909;CENTROS DE ATENCIÓN PRIMARIA: CENTROS DE SALUD;42.0219951;-3.2866585
CENTRO DE SALUD DE SALDAÑA;CL. RONDA DON GARCÍA 0  ;SALDAÑA;PALENCIA;979890009;CENTROS DE ATENCIÓN PRIMARIA: CENTROS DE SALUD;42.522133;-4.7367765
CENTRO DE SALUD DE SAN ANDRÉS DE RABANEDO;CL. BURBIA  0  ;BARRIO DE PINILLA;LEON;987237355;CENTROS DE ATENCIÓN PRIMARIA: CENTROS DE SALUD;42.6054124;-5.5941567
CENTRO DE SALUD DE SAN ESTEBAN DE GORMAZ;CL. CONDES DE SAN ESTEBAN 9  ;SAN ESTEBAN DE GORMAZ;SORIA;975350125;CENTROS DE ATENCIÓN PRIMARIA: CENTROS DE SALUD;41.5720566;-3.2022398
CENTRO DE SALUD DE SAN LEONARDO DE YAGÜE;CL. SAN PEDRO   ;SAN LEONARDO DE YAGÜE;SORIA;975376012;CENTROS DE ATENCIÓN PRIMARIA: CENTROS DE SALUD;41.8297251;-3.0639766
CENTRO DE SALUD DE SAN PEDRO DEL ARROYO;CR. DE VILLAFLOR 0  ;SAN PEDRO DEL ARROYO;AVILA;920240024;CENTROS DE ATENCIÓN PRIMARIA: CENTROS DE SALUD;40.80007639999999;-4.8717608
CENTRO DE SALUD DE SAN PEDRO MANRIQUE;CR. MEDIANA   ;SAN PEDRO MANRIQUE;SORIA;975381170;CENTROS DE ATENCIÓN PRIMARIA: CENTROS DE SALUD;42.02672889999999;-2.2292039
CENTRO DE SALUD DE SANTA MARÍA DEL PÁRAMO;CL. PRADO ARRIBA 0  ;SANTA MARIA DEL PARAMO;LEON;987360007;CENTROS DE ATENCIÓN PRIMARIA: CENTROS DE SALUD;42.3558775;-5.748098
CENTRO DE SALUD DE SAYAGO;CL. EZEQUIEL ELENO 0  ;BERMILLO DE SAYAGO;ZAMORA;980610263;CENTROS DE ATENCIÓN PRIMARIA: CENTROS DE SALUD;41.3652887;-6.1127838
CENTRO DE SALUD DE SEDANO;CL. LAS ERAS 0  ;SEDANO;BURGOS;947150038;CENTROS DE ATENCIÓN PRIMARIA: CENTROS DE SALUD;42.6379673;-3.6238032
CENTRO DE SALUD DE SEPÚLVEDA;CL. EL POSTIGUILLO 11  ;SEPULVEDA;SEGOVIA;921540043;CENTROS DE ATENCIÓN PRIMARIA: CENTROS DE SALUD;41.2995725;-3.7432514
CENTRO DE SALUD DE SERRADA;CL. LAS PEÑAS  3  ;SERRADA;VALLADOLID;983559003;CENTROS DE ATENCIÓN PRIMARIA: CENTROS DE SALUD;41.45766649999999;-4.861503
CENTRO DE SALUD DE SOTILLO DE LA ADRADA;PZ. DE LA CONCORDIA   ;SOTILLO DE LA ADRADA;AVILA;918660207;CENTROS DE ATENCIÓN PRIMARIA: CENTROS DE SALUD;40.2934312;-4.5833458
CENTRO DE SALUD DE TÁBARA;CR. DE RIOFRÍO 0  ;TABARA;ZAMORA;980590218;CENTROS DE ATENCIÓN PRIMARIA: CENTROS DE SALUD;41.829288;-5.9627637
CENTRO DE SALUD DE TEJARES (ELENA GINEL DÍEZ);CL. TOMÁS RODRÍGUEZ PINILLA 0  ;SALAMANCA;SALAMANCA;923192417;CENTROS DE ATENCIÓN PRIMARIA: CENTROS DE SALUD;40.9575877;-5.6840376
CENTRO DE SALUD DE TERA;CL. CARRETERA 72  ;CAMARZANA DE TERA;ZAMORA;980649038;CENTROS DE ATENCIÓN PRIMARIA: CENTROS DE SALUD;41.9938973;-6.032017799999999
CENTRO DE SALUD DE TORDESILLAS;AV. DE VALLADOLID   ;TORDESILLAS;VALLADOLID;983771750;CENTROS DE ATENCIÓN PRIMARIA: CENTROS DE SALUD;41.5028107;-4.996379999999999
CENTRO DE SALUD DE TORENO;CL. INSTITUTO, S/N   ;TORENO;LEON;987527225;CENTROS DE ATENCIÓN PRIMARIA: CENTROS DE SALUD;42.6955309;-6.5151689
CENTRO DE SALUD DE TORO;PZ. SAN AGUSTÍN 1  ;TORO;ZAMORA;980692030;CENTROS DE ATENCIÓN PRIMARIA: CENTROS DE SALUD;41.5201954;-5.391948999999999
CENTRO DE SALUD DE TROBAJO DEL CAMINO-VALVERDE DE LA VIRGEN;CL. BUENAVENTURA DURRUTI 1  ;SAN ANDRES DEL RABANEDO;LEON;987800802;CENTROS DE ATENCIÓN PRIMARIA: CENTROS DE SALUD;42.5966212;-5.6110412
CENTRO DE SALUD DE TUDELA DE DUERO;CL. MARÍA ZAMBRANO 0  ;TUDELA DE DUERO;VALLADOLID;983522479;CENTROS DE ATENCIÓN PRIMARIA: CENTROS DE SALUD;41.5841431;-4.588444099999999
CENTRO DE SALUD DE VALDERAS;CR. CARRETERA BENAVENTE 0  ;VALDERAS;LEON;987763107;CENTROS DE ATENCIÓN PRIMARIA: CENTROS DE SALUD;42.0766308;-5.444332999999999
CENTRO DE SALUD DE VALENCIA DE DON JUAN;CL. RAMÓN Y CAJAL 0  ;VALENCIA DE DON JUAN;LEON;987750095;CENTROS DE ATENCIÓN PRIMARIA: CENTROS DE SALUD;42.0786981;-5.444547
CENTRO DE SALUD DE VALLE DE TOBALINA (QUINTANA MARTÍN GALÍNDEZ);CR. MIRANDA 67  ;QUINTANA MARTIN GALINDEZ;BURGOS;947358788;CENTROS DE ATENCIÓN PRIMARIA: CENTROS DE SALUD;42.7925379;-3.2680472
CENTRO DE SALUD DE VENTA DE BAÑOS;CL. ANTONIO MACHADO 0  ;VENTA DE BAÑOS;PALENCIA;979770046;CENTROS DE ATENCIÓN PRIMARIA: CENTROS DE SALUD;41.9213808;-4.4894619
CENTRO DE SALUD DE VIDRIALES;CL. BENAVENTE   ;SANTIBAÑEZ DE VIDRIALES;ZAMORA;980648228;CENTROS DE ATENCIÓN PRIMARIA: CENTROS DE SALUD;42.0752372;-6.0136694
CENTRO DE SALUD DE VILLABLINO;CR. DE ASTURIAS 0  ;VILLABLINO;LEON;987470993;CENTROS DE ATENCIÓN PRIMARIA: CENTROS DE SALUD;42.9400155;-6.3169976
CENTRO DE SALUD DE VILLACASTÍN;CL. COSTANILLA DE SAN MIGUEL 0  ;VILLACASTIN;SEGOVIA;921198268;CENTROS DE ATENCIÓN PRIMARIA: CENTROS DE SALUD;40.7789357;-4.416434499999999
CENTRO DE SALUD DE VILLADA;CL. CASADO DEL ALISAL 0  ;VILLADA;PALENCIA;979844197;CENTROS DE ATENCIÓN PRIMARIA: CENTROS DE SALUD;42.2507968;-4.9669963
CENTRO DE SALUD DE VILLADIEGO;CL. REYES CATÓLICOS 0  ;VILLADIEGO;BURGOS;947360304;CENTROS DE ATENCIÓN PRIMARIA: CENTROS DE SALUD;42.5137899;-4.0120368
CENTRO DE SALUD DE VILLAFRANCA DEL BIERZO;AV. DÍAZ OVELAR 0  ;VILLAFRANCA DEL BIERZO;LEON;987542510;CENTROS DE ATENCIÓN PRIMARIA: CENTROS DE SALUD;42.6083664;-6.8086039
CENTRO DE SALUD DE VILLAFRECHÓS;CR. DE VILLALPANDO    ;VILLAFRECHOS;VALLADOLID;983716041;CENTROS DE ATENCIÓN PRIMARIA: CENTROS DE SALUD;41.8918449;-5.2175331
CENTRO DE SALUD DE VILLALÓN;AV. DEL PARQUE 14  ;VILLALON DE CAMPOS;VALLADOLID;983740169;CENTROS DE ATENCIÓN PRIMARIA: CENTROS DE SALUD;42.0936179;-5.038903299999999
CENTRO DE SALUD DE VILLAMURIEL DE CERRATO;AV. VALDEGUDÍN 0  ;VILLAMURIEL DE CERRATO;PALENCIA;979776301;CENTROS DE ATENCIÓN PRIMARIA: CENTROS DE SALUD;41.9521466;-4.5145148
CENTRO DE SALUD DE VILLARES DE LA REINA;CL. FUENTE 27-29  ;VILLARES DE LA REINA;SALAMANCA;923122280;CENTROS DE ATENCIÓN PRIMARIA: CENTROS DE SALUD;41.0088294;-5.6475976
CENTRO DE SALUD DE VILLARRAMIEL;CL. SANTA MARÍA 0  ;VILLARRAMIEL;PALENCIA;979837053;CENTROS DE ATENCIÓN PRIMARIA: CENTROS DE SALUD;42.0451931;-4.9134835
CENTRO DE SALUD DE VILLORIA;CL. CAÑADA 2  ;VILLORIA;SALAMANCA;923356677;CENTROS DE ATENCIÓN PRIMARIA: CENTROS DE SALUD;40.9919181;-5.375725399999999
CENTRO DE SALUD DE VITIGUDINO;CL. ALAMEDA 2  ;VITIGUDINO;SALAMANCA;923500086;CENTROS DE ATENCIÓN PRIMARIA: CENTROS DE SALUD;41.0042406;-6.436986999999999
CENTRO DE SALUD DE ZAMORA NORTE;CL. ALTO DE  SAN LÁZARO   ;ZAMORA;ZAMORA;980517119;CENTROS DE ATENCIÓN PRIMARIA: CENTROS DE SALUD;41.5034712;-5.7467879
CENTRO DE SALUD DE ZAMORA SUR;CL. SANTA TERESA 26  ;ZAMORA;ZAMORA;980510761;CENTROS DE ATENCIÓN PRIMARIA: CENTROS DE SALUD;41.5114518;-5.7400844
CENTRO DE SALUD DEL BURGO DE OSMA;CL. ACOSTA 38  ;BURGO DE OSMA (EL);SORIA;975341211;CENTROS DE ATENCIÓN PRIMARIA: CENTROS DE SALUD;41.5892109;-3.0642916
CENTRO DE SALUD DEL VALLE DE MENA;CL. NOCEDERA 0  ;VILLASANA DE MENA;BURGOS;947141313;CENTROS DE ATENCIÓN PRIMARIA: CENTROS DE SALUD;43.099678;-3.2832763
CENTRO DE SALUD DELICIAS I;PS. JUAN CARLOS I 18  ;VALLADOLID;VALLADOLID;983228311;CENTROS DE ATENCIÓN PRIMARIA: CENTROS DE SALUD;41.6346676;-4.718755
CENTRO DE SALUD DELICIAS II;PS. JUAN CARLOS I 18  ;VALLADOLID;VALLADOLID;983228312;CENTROS DE ATENCIÓN PRIMARIA: CENTROS DE SALUD;41.6346676;-4.718755
CENTRO DE SALUD DOCTOR FLEMING;CL. SANTA ELENA 12  ;ZAMORA;ZAMORA;980512311;CENTROS DE ATENCIÓN PRIMARIA: CENTROS DE SALUD;41.5110215;-5.744420799999999
CENTRO DE SALUD EL CRUCERO;CL. CARDENAL CISNEROS 22  ;LEON;LEON;987234103;CENTROS DE ATENCIÓN PRIMARIA: CENTROS DE SALUD;42.5998882;-5.590181599999999
CENTRO DE SALUD ERAS DE RENUEVA;CL. ABAD VIÑAYO 0  ;LEON;LEON;987245897;CENTROS DE ATENCIÓN PRIMARIA: CENTROS DE SALUD;42.6062381;-5.584053099999999
CENTRO DE SALUD ERAS DEL BOSQUE;CL. ERAS DEL BOSQUE 0  ;PALENCIA;PALENCIA;979752044;CENTROS DE ATENCIÓN PRIMARIA: CENTROS DE SALUD;42.0151887;-4.5325324
CENTRO DE SALUD GAMAZO;PS. DE FILIPINOS 15  ;VALLADOLID;VALLADOLID;983362068;CENTROS DE ATENCIÓN PRIMARIA: CENTROS DE SALUD;41.644327;-4.7311999
CENTRO DE SALUD GAMONAL LAS TORRES;CL. VICENTE ALEXANDRE 2  ;BURGOS;BURGOS;947216621;CENTROS DE ATENCIÓN PRIMARIA: CENTROS DE SALUD;42.3544548;-3.6768801
CENTRO DE SALUD GAMONAL-ANTIGUA;CL. ELADIO PERLADO 1  ;BURGOS;BURGOS;947470485;CENTROS DE ATENCIÓN PRIMARIA: CENTROS DE SALUD;42.3532974;-3.667524599999999
CENTRO DE SALUD GARCÍA LORCA;CL. FEDERICO GARCÍA LORCA 23  ;BURGOS;BURGOS;947470707;CENTROS DE ATENCIÓN PRIMARIA: CENTROS DE SALUD;42.3507127;-3.6626418
CENTRO DE SALUD GARRIDO-SUR (LA ALAMEDILLA);AV. COMUNEROS 27-31  ;SALAMANCA;SALAMANCA;923126582;CENTROS DE ATENCIÓN PRIMARIA: CENTROS DE SALUD;40.96875199999999;-5.655187799999999
CENTRO DE SALUD HUERTA DEL REY;CL. RASTROJO 14  ;VALLADOLID;VALLADOLID;983352666;CENTROS DE ATENCIÓN PRIMARIA: CENTROS DE SALUD;41.6534383;-4.7427774
CENTRO DE SALUD IGNACIO LÓPEZ SÁIZ;CL. JOSÉ Mª DE LA PUENTE 1  ;BURGOS;BURGOS;947280510;CENTROS DE ATENCIÓN PRIMARIA: CENTROS DE SALUD;42.3523771;-3.6924208
CENTRO DE SALUD JOSÉ AGUADO I;AV. JOSÉ AGUADO 0  ;LEON;LEON;987213809;CENTROS DE ATENCIÓN PRIMARIA: CENTROS DE SALUD;42.591978;-5.565395199999999
CENTRO DE SALUD JOSÉ AGUADO II;AV. JOSÉ AGUADO 0  ;LEON;LEON;987213809;CENTROS DE ATENCIÓN PRIMARIA: CENTROS DE SALUD;42.591978;-5.565395199999999
CENTRO DE SALUD JOSÉ LUIS SANTAMARÍA;CL. LAZARILLO DE TORMES 0  ;BURGOS;BURGOS;947474855;CENTROS DE ATENCIÓN PRIMARIA: CENTROS DE SALUD;42.3627352;-3.669850399999999
CENTRO DE SALUD LA CONDESA (HERMANOS LARRUCEA);AV. CONDESA DE SAGASTA 28  ;LEON;LEON;987232033;CENTROS DE ATENCIÓN PRIMARIA: CENTROS DE SALUD;42.5991955;-5.5801171
CENTRO DE SALUD LA GUAREÑA;CL. ARRABAL DE SAN PEDRO 0  ;FUENTESAUCO;ZAMORA;980601108;CENTROS DE ATENCIÓN PRIMARIA: CENTROS DE SALUD;41.2321531;-5.4987125
CENTRO DE SALUD LA MAGDALENA;AV. DE LA MAGDALENA 4  ;LEON;LEON;987581373;CENTROS DE ATENCIÓN PRIMARIA: CENTROS DE SALUD;42.6014056;-5.587220299999999
CENTRO DE SALUD LA PALOMERA;AV. SAN JUAN DE SAHAGÚN 0  ;LEON;LEON;987235140;CENTROS DE ATENCIÓN PRIMARIA: CENTROS DE SALUD;42.6045277;-5.5673277
CENTRO DE SALUD LA VICTORIA;AV. JARDÍN BOTÁNICO 3  ;VALLADOLID;VALLADOLID;0;CENTROS DE ATENCIÓN PRIMARIA: CENTROS DE SALUD;41.6669038;-4.735106800000001
CENTRO DE SALUD LAS HUELGAS;PS. DE LOS COMENDADORES (ANTIGUO HOSPITAL MILITAR, PABELLÓN 4º) 2  ;BURGOS;BURGOS;947468410;CENTROS DE ATENCIÓN PRIMARIA: CENTROS DE SALUD;42.3397072;-3.7196748
CENTRO DE SALUD LOS COMUNEROS;CL. JUAN DE PADILLA 7  ;BURGOS;BURGOS;947235100;CENTROS DE ATENCIÓN PRIMARIA: CENTROS DE SALUD;42.3504102;-3.6843464
CENTRO DE SALUD LOS CUBOS;CL. LAVADORES 0  ;BURGOS;BURGOS;947274488;CENTROS DE ATENCIÓN PRIMARIA: CENTROS DE SALUD;42.3399523;-3.7119672
CENTRO DE SALUD LOS JARDINILLOS;CL. ALONSO FERNÁNDEZ DE MADRID 1  ;PALENCIA;PALENCIA;979706610;CENTROS DE ATENCIÓN PRIMARIA: CENTROS DE SALUD;42.014046;-4.5336988
CENTRO DE SALUD MARÍA AUXILIADORA;CL. LAS JUSTAS 13  ;BEJAR;SALAMANCA;923402075;CENTROS DE ATENCIÓN PRIMARIA: CENTROS DE SALUD;40.3865117;-5.754731899999999
CENTRO DE SALUD MIGUEL ARMIJO MORENO;CL. ARAPILES 25  ;SALAMANCA;SALAMANCA;923290970;CENTROS DE ATENCIÓN PRIMARIA: CENTROS DE SALUD;40.9698515;-5.672911699999999
CENTRO DE SALUD MIRANDA ESTE;CL. CIUDAD DE VIERZÓN 11  ;MIRANDA DE EBRO;BURGOS;947331212;CENTROS DE ATENCIÓN PRIMARIA: CENTROS DE SALUD;42.6856801;-2.9385265
CENTRO DE SALUD MIRANDA OESTE;CL. CONDADO DE TREVIÑO 20  ;MIRANDA DE EBRO;BURGOS;947331313;CENTROS DE ATENCIÓN PRIMARIA: CENTROS DE SALUD;42.683452;-2.9457374
CENTRO DE SALUD PALENCIA RURAL;AV. SAN TELMO 0  ;PALENCIA;PALENCIA;979710361;CENTROS DE ATENCIÓN PRIMARIA: CENTROS DE SALUD;41.9969656;-4.520979
CENTRO DE SALUD PARQUE ALAMEDA - COVARESA;AV. DE CASTILLA Y LEÓN 137  ;VALLADOLID;VALLADOLID;983479704;CENTROS DE ATENCIÓN PRIMARIA: CENTROS DE SALUD;41.6180409;-4.7818428
CENTRO DE SALUD PARQUESOL;CL. CIUDAD DE LA HABANA 17  ;VALLADOLID;VALLADOLID;983380002;CENTROS DE ATENCIÓN PRIMARIA: CENTROS DE SALUD;41.6349128;-4.7619098
CENTRO DE SALUD PERIURBANA SUR (ELENA GINEL DÍEZ);CL. TOMÁS RODRÍGUEZ PINILLA 0  ;SALAMANCA;SALAMANCA;923194219;CENTROS DE ATENCIÓN PRIMARIA: CENTROS DE SALUD;40.9575877;-5.6840376
CENTRO DE SALUD PILARICA;CL. DOCTOT MONTERO 2  ;VALLADOLID;VALLADOLID;983213149;CENTROS DE ATENCIÓN PRIMARIA: CENTROS DE SALUD;41.650487;-4.7145354
CENTRO DE SALUD PINARES-COVALEDA;CL. VIRGEN DEL CAMPO 0  ;COVALEDA;SORIA;975370005;CENTROS DE ATENCIÓN PRIMARIA: CENTROS DE SALUD;41.9339451;-2.8817232
CENTRO DE SALUD PINTOR OLIVA;CL. DOCTOR FLEMING 0  ;PALENCIA;PALENCIA;979730050;CENTROS DE ATENCIÓN PRIMARIA: CENTROS DE SALUD;42.0021253;-4.5260436
CENTRO DE SALUD PISUERGA;PZ. DE ESPAÑA   ;ARROYO;VALLADOLID;983408769;CENTROS DE ATENCIÓN PRIMARIA: CENTROS DE SALUD;39.4806659;-6.5810076
CENTRO DE SALUD PLAZA CIRCULAR;CL. DR. MONTERO 2  ;VALLADOLID;VALLADOLID;983213148;CENTROS DE ATENCIÓN PRIMARIA: CENTROS DE SALUD;41.650487;-4.7145354
CENTRO DE SALUD PLAZA DEL EJÉRCITO;CL. HÍPICA 0  ;VALLADOLID;VALLADOLID;983228294;CENTROS DE ATENCIÓN PRIMARIA: CENTROS DE SALUD;41.6375253;-4.7384894
CENTRO DE SALUD PONFERRADA III;CL. RAMÓN GONZÁLEZ ALEGRE 0  ;PONFERRADA;LEON;987400221;CENTROS DE ATENCIÓN PRIMARIA: CENTROS DE SALUD;42.5471163;-6.605078199999999
CENTRO DE SALUD PUERTA NUEVA;RD. DE PUERTA NUEVA 6  ;ZAMORA;ZAMORA;980513341;CENTROS DE ATENCIÓN PRIMARIA: CENTROS DE SALUD;41.5017214;-5.7405651
CENTRO DE SALUD RONDILLA I;CL. CARDENAL TORQUEMADA 54  ;VALLADOLID;VALLADOLID;983310159;CENTROS DE ATENCIÓN PRIMARIA: CENTROS DE SALUD;41.6644079;-4.7199643
CENTRO DE SALUD RONDILLA II;CL. CARDENAL TORQUEMADA 054  ;VALLADOLID;VALLADOLID;983310161;CENTROS DE ATENCIÓN PRIMARIA: CENTROS DE SALUD;41.664538;-4.7199099
CENTRO DE SALUD SAN AGUSTÍN;CL. BONIFACIO ZAMORA USABEL 0  ;BURGOS;BURGOS;947274444;CENTROS DE ATENCIÓN PRIMARIA: CENTROS DE SALUD;42.3338039;-3.7023849
CENTRO DE SALUD SAN JUAN;CL. VALENCIA 32  ;SALAMANCA;SALAMANCA;923232778;CENTROS DE ATENCIÓN PRIMARIA: CENTROS DE SALUD;40.9717827;-5.6620905
CENTRO DE SALUD SAN PABLO;CL. CARDENAL TORQUEMADA   ;VALLADOLID;VALLADOLID;983376372;CENTROS DE ATENCIÓN PRIMARIA: CENTROS DE SALUD;41.6624917;-4.7226609
CENTRO DE SALUD SANABRIA;CL. VICENTE SALGADO 45  ;PUEBLA DE SANABRIA;ZAMORA;980620919;CENTROS DE ATENCIÓN PRIMARIA: CENTROS DE SALUD;42.0538017;-6.6280456
CENTRO DE SALUD SANCTI SPIRITUS-CANALEJAS (FILIBERTO VILLALOBOS);RD. SANCTI-SPIRITUS 43  ;SALAMANCA;SALAMANCA;923273081;CENTROS DE ATENCIÓN PRIMARIA: CENTROS DE SALUD;40.9652427;-5.6586929
CENTRO DE SALUD SANTA CLARA;PZ. SANTA TERESA 0  ;BURGOS;BURGOS;947274499;CENTROS DE ATENCIÓN PRIMARIA: CENTROS DE SALUD;42.5466917;-3.324576
CENTRO DE SALUD SANTA MARTA;CL. PADRE IGNACIO ELLACURÍA 0  ;SANTA MARTA DE TORMES;SALAMANCA;923130180;CENTROS DE ATENCIÓN PRIMARIA: CENTROS DE SALUD;40.9507572;-5.6286382
CENTRO DE SALUD SEGOVIA I;CL. SANTO TOMÁS 9  ;SEGOVIA;SEGOVIA;921419333;CENTROS DE ATENCIÓN PRIMARIA: CENTROS DE SALUD;40.94218;-4.11754
CENTRO DE SALUD SEGOVIA II;CL. DEL PARQUE 37  ;SEGOVIA;SEGOVIA;921443162;CENTROS DE ATENCIÓN PRIMARIA: CENTROS DE SALUD;40.9452838;-4.1065843
CENTRO DE SALUD SEGOVIA III;AV. VÍA ROMA   ;SEGOVIA;SEGOVIA;921412933;CENTROS DE ATENCIÓN PRIMARIA: CENTROS DE SALUD;40.9518295;-4.1107412
CENTRO DE SALUD SEGOVIA RURAL;CL. ALTOS DE LA PIEDAD 0  ;SEGOVIA;SEGOVIA;921442590;CENTROS DE ATENCIÓN PRIMARIA: CENTROS DE SALUD;40.9429032;-4.108806899999999
CENTRO DE SALUD SISINIO DE CASTRO;PS. DEL ROMERO 0  ;SALAMANCA;SALAMANCA;923232150;CENTROS DE ATENCIÓN PRIMARIA: CENTROS DE SALUD;40.9788859;-5.6557904
CENTRO DE SALUD SORIA NORTE;PS. DEL ESPOLÓN 16  3;SORIA;SORIA;975221561;CENTROS DE ATENCIÓN PRIMARIA: CENTROS DE SALUD;41.7647668;-2.4712652
CENTRO DE SALUD SORIA RURAL;CR. DE LOGROÑO   ;SORIA;SORIA;975228282;CENTROS DE ATENCIÓN PRIMARIA: CENTROS DE SALUD;41.7698647;-2.4642006
CENTRO DE SALUD SORIA SUR (LA MILAGROSA);CL. NICOLÁS RABAL 19  ;SORIA;SORIA;975221299;CENTROS DE ATENCIÓN PRIMARIA: CENTROS DE SALUD;41.7630364;-2.4722428
CENTRO DE SALUD TÓRTOLA;CL. TÓRTOLA 19  ;VALLADOLID;VALLADOLID;983398674;CENTROS DE ATENCIÓN PRIMARIA: CENTROS DE SALUD;41.6447565;-4.7096519
CENTRO DE SALUD UNIVERSIDAD-CENTRO (FILIBERTO VILLALOBOS);RD. SANCTI SPIRITUS 43  ;SALAMANCA;SALAMANCA;923219911;CENTROS DE ATENCIÓN PRIMARIA: CENTROS DE SALUD;40.9652427;-5.6586929
CENTRO DE SALUD VALLADOLID RURAL I (RENEDO);CR. DE VALLADOLID 0  ;RENEDO;VALLADOLID;983508250;CENTROS DE ATENCIÓN PRIMARIA: CENTROS DE SALUD;41.6541488;-4.6313042
CENTRO DE SALUD VALLADOLID RURAL II (ZARATÁN);CL. EUSEBIO GONZÁLEZ SUÁREZ 0  ;ZARATAN;VALLADOLID;983362231;CENTROS DE ATENCIÓN PRIMARIA: CENTROS DE SALUD;41.6328785;-4.7558193
CENTRO DE SALUD VIRGEN DE LA CONCHA;AV. REQUEJO 31  ;ZAMORA;ZAMORA;980513411;CENTROS DE ATENCIÓN PRIMARIA: CENTROS DE SALUD;41.5105163;-5.7363878
CENTRO SALUD PARADA DEL MOLINO;CL. PARADA DEL MOLINO 2  ;ZAMORA;ZAMORA;980511411;CENTROS DE ATENCIÓN PRIMARIA: CENTROS DE SALUD;41.5097804;-5.752697599999999
